[
  {
    "id": "custom",
    "name": "🎨 Custom",
    "asteroidType": "rocky",
    "diameter": 100,
    "velocity": 20,
    "angle": 45,
    "composition": "stone",
    "distance": 10
  },
  {
    "id": "2000001",
    "neo_reference_id": "2000001",
    "name": "1 Ceres (A801 AA)",
    "designation": "1",
    "asteroidType": "icy",
    "diameter": 939400,
    "velocity": 17,
    "angle": 25,
    "composition": "ice",
    "distance": 20,
    "links": {
      "self": "https://ssd.jpl.nasa.gov/sbdb.cgi?sstr=2000001"
    },
    "nasa_jpl_url": "http://ssd.jpl.nasa.gov/sbdb.cgi?sstr=2000001",
    "absolute_magnitude_h": 3.34,
    "estimated_diameter": {
      "kilometers": {
        "estimated_diameter_min": 570.8933400239,
        "estimated_diameter_max": 1276.5563161953
      },
      "meters": {
        "estimated_diameter_min": 570893.340023896,
        "estimated_diameter_max": 1276556.3161953325
      },
      "miles": {
        "estimated_diameter_min": 354.736565584,
        "estimated_diameter_max": 793.2150747506
      },
      "feet": {
        "estimated_diameter_min": 1873009.705683999,
        "estimated_diameter_max": 4188177.024426295
      }
    },
    "is_potentially_hazardous_asteroid": false,
    "close_approach_data": [],
    "is_sentry_object": false,
    "orbital_data": {
      "orbit_id": "128",
      "orbit_determination_date": "2021-01-29 00:00:00",
      "first_observation_date": "1995-01-05",
      "last_observation_date": "2021-01-28",
      "data_arc_in_days": 9520,
      "observations_used": 1075,
      "orbit_uncertainty": "0",
      "minimum_orbit_intersection": "1.58",
      "jupiter_tisserand_invariant": "3.309",
      "epoch_osculation": "2460200.5",
      "eccentricity": ".0789",
      "semi_major_axis": "2.767",
      "inclination": "10.59",
      "ascending_node_longitude": "80.25",
      "orbital_period": "1680.99",
      "perihelion_distance": "2.55",
      "perihelion_argument": "73.42",
      "aphelion_distance": "2.99",
      "perihelion_time": "2459919.9614",
      "mean_anomaly": "60.08",
      "mean_motion": ".21416",
      "equinox": "J2000"
    },
    "orbit_class": {
      "orbit_class_type": "",
      "orbit_class_description": "",
      "orbit_class_range": ""
    },
    "videoUrl": "./videos/ceres.mp4",
    "images": {
      "full_view": "./images/asteroid-ceres-1.jpg",
      "surface": "./images/asteroid-ceres-2.jpg",
      "view_from_space": "./images/asteroid-ceres-2.jpg"
    }
  },
  {
    "id": "2101955",
    "neo_reference_id": "2101955",
    "name": "101955 Bennu (1999 RQ36)",
    "designation": "101955",
    "asteroidType": "rocky",
    "diameter": 490,
    "velocity": 28,
    "angle": 45,
    "composition": "stone",
    "distance": 12,
    "links": {
      "self": "http://www.neowsapp.com/rest/v1/neo/2101955?api_key=DEMO_KEY"
    },
    "nasa_jpl_url": "http://ssd.jpl.nasa.gov/sbdb.cgi?sstr=2101955",
    "absolute_magnitude_h": 20.21,
    "estimated_diameter": {
      "kilometers": {
        "estimated_diameter_min": 0.2412986969,
        "estimated_diameter_max": 0.5395602892
      },
      "meters": {
        "estimated_diameter_min": 241.2986969214,
        "estimated_diameter_max": 539.5602891983
      },
      "miles": {
        "estimated_diameter_min": 0.1499360126,
        "estimated_diameter_max": 0.3352671165
      },
      "feet": {
        "estimated_diameter_min": 791.6624168075,
        "estimated_diameter_max": 1770.2109792133
      }
    },
    "is_potentially_hazardous_asteroid": true,
    "close_approach_data": [
      {
        "close_approach_date": "1999-09-22",
        "close_approach_date_full": "1999-Sep-22 00:00",
        "epoch_date_close_approach": 937958400000,
        "relative_velocity": {
          "kilometers_per_second": "6.174",
          "kilometers_per_hour": "22226.400000",
          "miles_per_hour": "13810.8403944"
        },
        "miss_distance": {
          "astronomical": "0.0147",
          "lunar": "5.7208342586",
          "kilometers": "2199088.6889999998",
          "miles": "1366449.9377726188"
        },
        "orbiting_body": "Earth"
      }
    ],
    "is_sentry_object": true,
    "orbital_data": {
      "orbit_id": "76",
      "orbit_determination_date": "2021-09-29 00:00:00",
      "first_observation_date": "1999-09-11",
      "last_observation_date": "2020-10-03",
      "data_arc_in_days": 7693,
      "observations_used": 554,
      "orbit_uncertainty": "0",
      "minimum_orbit_intersection": ".003",
      "jupiter_tisserand_invariant": "5.524",
      "epoch_osculation": "2455562.5",
      "eccentricity": ".2037",
      "semi_major_axis": "1.126",
      "inclination": "6.03",
      "ascending_node_longitude": "2.06",
      "orbital_period": "436.65",
      "perihelion_distance": "0.90",
      "perihelion_argument": "66.22",
      "aphelion_distance": "1.36",
      "perihelion_time": "2455439.0475",
      "mean_anomaly": "101.7",
      "mean_motion": ".8238",
      "equinox": "J2000"
    },
    "orbit_class": {
      "orbit_class_type": "APO",
      "orbit_class_description": "Near-Earth asteroid orbits which cross the Earth's orbit similar to that of 1862 Apollo",
      "orbit_class_range": "a > 1.0 AU; q < 1.017 AU"
    },
    "videoUrl": "./videos/bennu.mp4",
    "images": {
      "full_view": "./images/asteroid-bennu-1.jpg",
      "surface": "./images/asteroid-bennu-2.jpg",
      "view_from_space": "./images/asteroid-bennu-2.jpg"
    }
  }
]
